[{"OBJECT_NAME":"STARLINK-30413","OBJECT_ID":"2023-138G","EPOCH":"2026-03-09T22:00:01.999584","MEAN_MOTION":15.25124836,"ECCENTRICITY":0.00017746,"INCLINATION":43.0027,"RA_OF_ASC_NODE":233.2965,"ARG_OF_PERICENTER":285.3161,"MEAN_ANOMALY":247.4946,"EPHEMERIS_TYPE":0,"CLASSIFICATION_TYPE":"U","NORAD_CAT_ID":57814,"ELEMENT_SET_NO":999,"REV_AT_EPOCH":572,"BSTAR":0.03016679,"MEAN_MOTION_DOT":0.00825818,"MEAN_MOTION_DDOT":0},{"OBJECT_NAME":"FREGAT DEB","OBJECT_ID":"2011-037BA","EPOCH":"2026-03-07T21:51:11.179584","MEAN_MOTION":11.85982955,"ECCENTRICITY":0.16068404,"INCLINATION":51.4778,"RA_OF_ASC_NODE":309.8732,"ARG_OF_PERICENTER":204.2893,"MEAN_ANOMALY":147.3247,"EPHEMERIS_TYPE":0,"CLASSIFICATION_TYPE":"U","NORAD_CAT_ID":45816,"ELEMENT_SET_NO":999,"REV_AT_EPOCH":24023,"BSTAR":0.0038548869,"MEAN_MOTION_DOT":0.00018183,"MEAN_MOTION_DDOT":0}]
